COSMOS 2588             
1 64095U 25109A   26068.81179522  .00009169  00000+0  32611-3 0  9998
2 64095  72.9704  73.5401 0005019 308.6780  51.3966 15.29122656 44425
STARLINK-36188          
1 67122U 25299W   26068.30350670  .00071457  00000+0  25103-2 0  9997
2 67122  43.0019 171.4824 0001202 159.1817 200.9084 15.28492358 13050
